{"type": "FeatureCollection", "features": [ {"type": "Feature", "properties": {"norad_id": 38779, "name": "GSAT-10 (GAGAN/PRN 128)", "group": "gnss", "lat": -0.045210330995248724, "lon": -125.63389129923402, "alt_km": 35789.82312406018, "timestamp": "2025-12-24T03:53:29.890283+00:00", "meta": {"OBJECT_NAME": "GSAT-10 (GAGAN/PRN 128)", "OBJECT_ID": "2012-051B", "EPOCH": "2025-12-23T19:16:08.194368", "MEAN_MOTION": 1.00271429, "ECCENTRICITY": 0.0002265, "INCLINATION": 0.0654, "RA_OF_ASC_NODE": 262.7671, "ARG_OF_PERICENTER": 219.604, "MEAN_ANOMALY": 342.2834, "EPHEMERIS_TYPE": 0, "CLASSIFICATION_TYPE": "U", "NORAD_CAT_ID": 38779, "ELEMENT_SET_NO": 999, "REV_AT_EPOCH": 4834, "BSTAR": 0, "MEAN_MOTION_DOT": -1.44e-06, "MEAN_MOTION_DDOT": 0}, "tle": {"line1": "1 38779U 12051B   25357.80287262 -.00000144  00000+0  00000+0 0  9998", "line2": "2 38779   0.0654 262.7671 0002265 219.6040 342.2834  1.00271429 48340"}}, "geometry": {"type": "Point", "coordinates": [-125.63389129923402, -0.045210330995248724]}}, {"type": "Feature", "properties": {"norad_id": 38833, "name": "GPS BIIF-3  (PRN 24)", "group": "gnss", "lat": -48.6345407808373, "lon": 27.790004393847532, "alt_km": 20653.011099878706, "timestamp": "2025-12-24T03:53:29.890295+00:00", "meta": {"OBJECT_NAME": "GPS BIIF-3  (PRN 24)", "OBJECT_ID": "2012-053A", "EPOCH": "2025-12-22T07:46:34.286880", "MEAN_MOTION": 2.0056507, "ECCENTRICITY": 0.0176029, "INCLINATION": 53.5595, "RA_OF_ASC_NODE": 150.8462, "ARG_OF_PERICENTER": 64.1364, "MEAN_ANOMALY": 297.6424, "EPHEMERIS_TYPE": 0, "CLASSIFICATION_TYPE": "U", "NORAD_CAT_ID": 38833, "ELEMENT_SET_NO": 999, "REV_AT_EPOCH": 9589, "BSTAR": 0, "MEAN_MOTION_DOT": 6.6e-07, "MEAN_MOTION_DDOT": 0}, "tle": {"line1": "1 38833U 12053A   25356.32400795  .00000066  00000+0  00000+0 0  9997", "line2": "2 38833  53.5595 150.8462 0176029  64.1364 297.6424  2.00565070 95894"}}, "geometry": {"type": "Point", "coordinates": [27.790004393847532, -48.6345407808373]}}, {"type": "Feature", "properties": {"norad_id": 38857, "name": "GSAT0103 (GALILEO-FM3)", "group": "gnss", "lat": 36.90960464140956, "lon": 137.14689960496133, "alt_km": 23224.229820872828, "timestamp": "2025-12-24T03:53:29.890309+00:00", "meta": {"OBJECT_NAME": "GSAT0103 (GALILEO-FM3)", "OBJECT_ID": "2012-055A", "EPOCH": "2025-12-22T21:54:43.252704", "MEAN_MOTION": 1.70473351, "ECCENTRICITY": 0.0002995, "INCLINATION": 55.698, "RA_OF_ASC_NODE": 106.3873, "ARG_OF_PERICENTER": 269.858, "MEAN_ANOMALY": 90.0891, "EPHEMERIS_TYPE": 0, "CLASSIFICATION_TYPE": "U", "NORAD_CAT_ID": 38857, "ELEMENT_SET_NO": 999, "REV_AT_EPOCH": 8200, "BSTAR": 0, "MEAN_MOTION_DOT": 1e-07, "MEAN_MOTION_DDOT": 0}, "tle": {"line1": "1 38857U 12055A   25356.91300061  .00000010  00000+0  00000+0 0  9994", "line2": "2 38857  55.6980 106.3873 0002995 269.8580  90.0891  1.70473351 82005"}}, "geometry": {"type": "Point", "coordinates": [137.14689960496133, 36.90960464140956]}}, {"type": "Feature", "properties": {"norad_id": 38953, "name": "BEIDOU-2 G6 (C02)", "group": "gnss", "lat": 1.3626453034360322, "lon": -124.80846022479474, "alt_km": 35810.53038156397, "timestamp": "2025-12-24T03:53:29.890323+00:00", "meta": {"OBJECT_NAME": "BEIDOU-2 G6 (C02)", "OBJECT_ID": "2012-059A", "EPOCH": "2025-12-23T17:40:08.745312", "MEAN_MOTION": 1.00268216, "ECCENTRICITY": 0.0008329, "INCLINATION": 3.9754, "RA_OF_ASC_NODE": 75.3987, "ARG_OF_PERICENTER": 292.2173, "MEAN_ANOMALY": 73.8502, "EPHEMERIS_TYPE": 0, "CLASSIFICATION_TYPE": "U", "NORAD_CAT_ID": 38953, "ELEMENT_SET_NO": 999, "REV_AT_EPOCH": 4815, "BSTAR": 0, "MEAN_MOTION_DOT": -1.54e-06, "MEAN_MOTION_DDOT": 0}, "tle": {"line1": "1 38953U 12059A   25357.73621233 -.00000154  00000+0  00000+0 0  9993", "line2": "2 38953   3.9754  75.3987 0008329 292.2173  73.8502  1.00268216 48154"}}, "geometry": {"type": "Point", "coordinates": [-124.80846022479474, 1.3626453034360322]}}, {"type": "Feature", "properties": {"norad_id": 38977, "name": "LUCH 5B (SDCM/PRN 125)", "group": "gnss", "lat": 10.052874116785624, "lon": 134.81227051438813, "alt_km": 35795.559056160746, "timestamp": "2025-12-24T03:53:29.890348+00:00", "meta": {"OBJECT_NAME": "LUCH 5B (SDCM/PRN 125)", "OBJECT_ID": "2012-061A", "EPOCH": "2025-12-22T23:21:25.865856", "MEAN_MOTION": 1.00272063, "ECCENTRICITY": 0.00065916, "INCLINATION": 10.1018, "RA_OF_ASC_NODE": 51.6073, "ARG_OF_PERICENTER": 195.9358, "MEAN_ANOMALY": 178.2582, "EPHEMERIS_TYPE": 0, "CLASSIFICATION_TYPE": "U", "NORAD_CAT_ID": 38977, "ELEMENT_SET_NO": 999, "REV_AT_EPOCH": 4784, "BSTAR": 0, "MEAN_MOTION_DOT": -1.21e-06, "MEAN_MOTION_DDOT": 0}, "tle": {"line1": "1 38977U 12061A   25356.97321604 -.00000121  00000+0  00000+0 0  9990", "line2": "2 38977  10.1018  51.6073 0006591 195.9358 178.2582  1.00272063 47847"}}, "geometry": {"type": "Point", "coordinates": [134.81227051438813, 10.052874116785624]}}, {"type": "Feature", "properties": {"norad_id": 39155, "name": "COSMOS 2485 (747)", "group": "gnss", "lat": -34.82545241432462, "lon": -81.87735710235721, "alt_km": 19071.8973554622, "timestamp": "2025-12-24T03:53:29.890363+00:00", "meta": {"OBJECT_NAME": "COSMOS 2485 (747)", "OBJECT_ID": "2013-019A", "EPOCH": "2025-12-22T11:14:56.157792", "MEAN_MOTION": 2.13103251, "ECCENTRICITY": 0.00249447, "INCLINATION": 65.3184, "RA_OF_ASC_NODE": 79.5401, "ARG_OF_PERICENTER": 230.2875, "MEAN_ANOMALY": 129.5355, "EPHEMERIS_TYPE": 0, "CLASSIFICATION_TYPE": "U", "NORAD_CAT_ID": 39155, "ELEMENT_SET_NO": 999, "REV_AT_EPOCH": 9851, "BSTAR": 0, "MEAN_MOTION_DOT": -2e-08, "MEAN_MOTION_DDOT": 0}, "tle": {"line1": "1 39155U 13019A   25356.46870553 -.00000002  00000+0  00000+0 0  9997", "line2": "2 39155  65.3184  79.5401 0024944 230.2875 129.5355  2.13103251 98519"}}, "geometry": {"type": "Point", "coordinates": [-81.87735710235721, -34.82545241432462]}}, {"type": "Feature", "properties": {"norad_id": 39166, "name": "GPS BIIF-4  (PRN 27)", "group": "gnss", "lat": -12.107953693071387, "lon": -92.649436669193, "alt_km": 20016.36507138595, "timestamp": "2025-12-24T03:53:29.890375+00:00", "meta": {"OBJECT_NAME": "GPS BIIF-4  (PRN 27)", "OBJECT_ID": "2013-023A", "EPOCH": "2025-12-22T04:30:56.781216", "MEAN_MOTION": 2.00564649, "ECCENTRICITY": 0.01384833, "INCLINATION": 54.6439, "RA_OF_ASC_NODE": 276.1841, "ARG_OF_PERICENTER": 48.7288, "MEAN_ANOMALY": 312.4984, "EPHEMERIS_TYPE": 0, "CLASSIFICATION_TYPE": "U", "NORAD_CAT_ID": 39166, "ELEMENT_SET_NO": 999, "REV_AT_EPOCH": 9233, "BSTAR": 0, "MEAN_MOTION_DOT": -1.5e-07, "MEAN_MOTION_DDOT": 0}, "tle": {"line1": "1 39166U 13023A   25356.18815719 -.00000015  00000+0  00000+0 0  9990", "line2": "2 39166  54.6439 276.1841 0138483  48.7288 312.4984  2.00564649 92335"}}, "geometry": {"type": "Point", "coordinates": [-92.649436669193, -12.107953693071387]}}, {"type": "Feature", "properties": {"norad_id": 39199, "name": "IRNSS-1A", "group": "gnss", "lat": 22.10442310656461, "lon": -148.4956177346938, "alt_km": 35756.97494247184, "timestamp": "2025-12-24T03:53:29.890386+00:00", "meta": {"OBJECT_NAME": "IRNSS-1A", "OBJECT_ID": "2013-034A", "EPOCH": "2025-12-23T18:31:50.766240", "MEAN_MOTION": 1.00273261, "ECCENTRICITY": 0.0024447, "INCLINATION": 35.3346, "RA_OF_ASC_NODE": 66.3922, "ARG_OF_PERICENTER": 214.961, "MEAN_ANOMALY": 143.9705, "EPHEMERIS_TYPE": 0, "CLASSIFICATION_TYPE": "U", "NORAD_CAT_ID": 39199, "ELEMENT_SET_NO": 999, "REV_AT_EPOCH": 4560, "BSTAR": 0, "MEAN_MOTION_DOT": 7.8e-07, "MEAN_MOTION_DDOT": 0}, "tle": {"line1": "1 39199U 13034A   25357.77211535  .00000078  00000+0  00000+0 0  9998", "line2": "2 39199  35.3346  66.3922 0024447 214.9610 143.9705  1.00273261 45605"}}, "geometry": {"type": "Point", "coordinates": [-148.4956177346938, 22.10442310656461]}}, {"type": "Feature", "properties": {"norad_id": 39533, "name": "GPS BIIF-5  (PRN 30)", "group": "gnss", "lat": -8.343923487932269, "lon": 150.27266861126455, "alt_km": 20300.088150808842, "timestamp": "2025-12-24T03:53:29.890400+00:00", "meta": {"OBJECT_NAME": "GPS BIIF-5  (PRN 30)", "OBJECT_ID": "2014-008A", "EPOCH": "2025-12-20T16:28:24.690432", "MEAN_MOTION": 2.00548724, "ECCENTRICITY": 0.00795742, "INCLINATION": 53.6246, "RA_OF_ASC_NODE": 156.6308, "ARG_OF_PERICENTER": 226.1122, "MEAN_ANOMALY": 133.2164, "EPHEMERIS_TYPE": 0, "CLASSIFICATION_TYPE": "U", "NORAD_CAT_ID": 39533, "ELEMENT_SET_NO": 999, "REV_AT_EPOCH": 8610, "BSTAR": 0, "MEAN_MOTION_DOT": 6.5e-07, "MEAN_MOTION_DDOT": 0}, "tle": {"line1": "1 39533U 14008A   25354.68639688  .00000065  00000+0  00000+0 0  9998", "line2": "2 39533  53.6246 156.6308 0079574 226.1122 133.2164  2.00548724 86105"}}, "geometry": {"type": "Point", "coordinates": [150.27266861126455, -8.343923487932269]}}, {"type": "Feature", "properties": {"norad_id": 39617, "name": "ASTRA 5B (EGNOS/PRN 123)", "group": "gnss", "lat": 0.01803860492053622, "lon": 174.75237437854747, "alt_km": 35791.12760321715, "timestamp": "2025-12-24T03:53:29.890414+00:00", "meta": {"OBJECT_NAME": "ASTRA 5B (EGNOS/PRN 123)", "OBJECT_ID": "2014-011B", "EPOCH": "2025-12-23T18:22:51.625920", "MEAN_MOTION": 1.00270759, "ECCENTRICITY": 0.0004539, "INCLINATION": 0.0441, "RA_OF_ASC_NODE": 10.2088, "ARG_OF_PERICENTER": 269.0783, "MEAN_ANOMALY": 112.4736, "EPHEMERIS_TYPE": 0, "CLASSIFICATION_TYPE": "U", "NORAD_CAT_ID": 39617, "ELEMENT_SET_NO": 999, "REV_AT_EPOCH": 4290, "BSTAR": 0, "MEAN_MOTION_DOT": 1.58e-06, "MEAN_MOTION_DDOT": 0}, "tle": {"line1": "1 39617U 14011B   25357.76587530  .00000158  00000+0  00000+0 0  9998", "line2": "2 39617   0.0441  10.2088 0004539 269.0783 112.4736  1.00270759 42902"}}, "geometry": {"type": "Point", "coordinates": [174.75237437854747, 0.01803860492053622]}}]}